STARLINK-3551           
1 51887U 22022AM  25047.91043577  .00000243  00000+0  33366-4 0  9994
2 51887  53.2171 290.9535 0001279  97.4290 262.6848 15.08832664165004
STARLINK-3536           
1 51888U 22022AN  25047.98402987  .00001071  00000+0  85379-4 0  9997
2 51888  53.2176 290.6215 0001352  86.7749 273.3398 15.08842929165020
STARLINK-3547           
1 51889U 22022AP  25048.09810618 -.00003566  00000+0 -20611-3 0  9995
2 51889  53.2179 290.1116 0001575 101.1916 258.9253 15.08830682165037
STARLINK-3519           
1 51890U 22022AQ  25047.87349191  .00120481  00000+0  21806-2 0  9995
2 51890  53.1873 259.6853 0006886 193.9427 166.1393 15.48767327165442
STARLINK-3549           
1 51891U 22022AR  25047.96194750  .00000153  00000+0  27722-4 0  9993
2 51891  53.2173 290.7202 0001359  90.2916 269.8231 15.08841182165061
STARLINK-3587           
1 51892U 22022AS  25047.96932375  .00001283  00000+0  98660-4 0  9991
2 51892  53.2174 290.6894 0001363  98.4387 261.6759 15.08840493165010
STARLINK-3579           
1 51893U 22022AT  25047.95459258  .00000973  00000+0  79218-4 0  9998
2 51893  53.2184 290.7531 0001495  97.2301 262.8861 15.08832957165079
STARLINK-3595           
1 51894U 22022AU  25047.95826793  .00000826  00000+0  69965-4 0  9996
2 51894  53.2173 290.7364 0001289  94.9536 265.1603 15.08841919165075
STARLINK-3594           
1 51895U 22022AV  25047.95091349  .00000568  00000+0  53798-4 0  9998
2 51895  53.2168 290.7703 0001386  80.6812 279.4337 15.08832980165018
STARLINK-3593           
1 51896U 22022AW  25047.90678210  .00000495  00000+0  49176-4 0  9996
2 51896  53.2182 291.1920 0001582  97.8414 262.2758 15.08832272165052
STARLINK-3598           
1 51897U 22022AX  25047.94723408 -.00001512  00000+0 -76953-4 0  9997
2 51897  53.2172 290.7853 0001484  97.7175 262.3985 15.08831857165013
STARLINK-3597           
1 51898U 22022AY  25047.94355609  .00000662  00000+0  59669-4 0  9990
2 51898  53.2182 290.8000 0001320  94.7642 265.3500 15.08829114165069
STARLINK-3700           
1 51956U 22025A   25048.14522319  .00000530  00000+0  52379-4 0  9990
2 51956  53.0547 312.6966 0001481  83.5971 276.5188 15.08034189164021
STARLINK-3694           
1 51957U 22025B   25048.06159139 -.00000612  00000+0 -22170-4 0  9997
2 51957  53.0568 327.0214 0001350  95.3440 264.7703 15.06404619163835
STARLINK-3692           
1 51958U 22025C   25047.94258459  .00000424  00000+0  45605-4 0  9996
2 51958  53.0565 313.6104 0001398 106.0817 254.0327 15.08028101162903
STARLINK-3704           
1 51959U 22025D   25047.93258911 -.00000762  00000+0 -32251-4 0  9999
2 51959  53.0580 327.5741 0001395  89.9539 270.1610 15.06391961162706
STARLINK-3691           
1 51960U 22025E   25047.92521275  .00000756  00000+0  69627-4 0  9994
2 51960  53.0560 327.6118 0001417  94.8828 265.2323 15.06397478162701
STARLINK-3697           
1 51962U 22025G   25047.95937550 -.00000138  00000+0  96051-5 0  9993
2 51962  53.0554 318.0344 0001656  99.9423 260.1753 15.06398820162841
STARLINK-3675           
1 51963U 22025H   25048.13469164  .00000549  00000+0  53600-4 0  9993
2 51963  53.0552 312.7339 0001376  99.5489 260.5656 15.08043843164024
STARLINK-3690           
1 51964U 22025J   25047.93828170  .00003218  00000+0  23482-3 0  9997
2 51964  53.0555 318.7177 0001826  80.2430 279.8765 15.06398504162833
STARLINK-3696           
1 51965U 22025K   25047.92152790 -.00000600  00000+0 -21376-4 0  9990
2 51965  53.0568 327.6232 0001417  97.1972 262.9179 15.06391460162705
STARLINK-3699           
1 51966U 22025L   25047.96069397 -.00000162  00000+0  80096-5 0  9992
2 51966  53.0573 322.4348 0001629  76.8923 283.2248 15.06390102162781
STARLINK-3681           
1 51968U 22025N   25047.91984132 -.00000277  00000+0  28493-6 0  9993
2 51968  53.0569 318.7196 0001480  99.1641 260.9516 15.06394977162837
STARLINK-3680           
1 51969U 22025P   25047.96042391 -.00000421  00000+0 -93948-5 0  9999
2 51969  53.0570 318.8289 0001488 102.4640 257.6515 15.06393498162827
STARLINK-3677           
1 51970U 22025Q   25047.95701378 -.00000077  00000+0  13721-4 0  9993
2 51970  53.0569 322.5175 0001268  95.8605 264.2528 15.06391300162788
STARLINK-3669           
1 51971U 22025R   25047.92350110  .00004324  00000+0  30880-3 0  9997
2 51971  53.0551 318.6522 0000914  97.7792 262.3301 15.06421489162833
STARLINK-3671           
1 51972U 22025S   25048.14501728 -.00003408  00000+0 -21012-3 0  9997
2 51972  53.0566 321.6583 0001339  90.7922 269.3220 15.06376001163917
STARLINK-3679           
1 51973U 22025T   25048.01968335 -.00002421  00000+0 -14374-3 0  9992
2 51973  53.0563 322.1628 0001514  88.2784 271.8379 15.06382601163886
STARLINK-3672           
1 51974U 22025U   25048.14129358  .00001363  00000+0  11036-3 0  9995
2 51974  53.0575 321.6754 0001568  89.8273 270.2896 15.06407543163894
STARLINK-3674           
1 51975U 22025V   25048.05891099  .00000079  00000+0  24187-4 0  9999
2 51975  53.0575 317.6447 0001563  88.4353 271.6815 15.06392826163970
STARLINK-3663           
1 51976U 22025W   25048.02441935  .00059721  00000+0  25747-2 0  9996
2 51976  53.2123 323.3534 0002566  12.7761 347.3301 15.22014799164048
STARLINK-3660           
1 51977U 22025X   25047.90219458  .00000638  00000+0  58212-4 0  9994
2 51977  53.2201 311.0006 0001461  90.0897 270.0263 15.08833369164186
STARLINK-3656           
1 51979U 22025Z   25047.50931336 -.00000871  00000+0 -36610-4 0  9997
2 51979  53.2193 332.7527 0001755  83.7041 276.4151 15.08833758163875
STARLINK-3649           
1 51980U 22025AA  25047.95090895  .00001067  00000+0  85102-4 0  9990
2 51980  53.2185 330.7679 0001310  79.5334 280.5806 15.08839373162825
STARLINK-3635           
1 51981U 22025AB  25048.09813468 -.00003052  00000+0 -17387-3 0  9993
2 51981  53.2181 330.1057 0001149  98.6605 261.4517 15.08816859163944
STARLINK-3655           
1 51983U 22025AD  25048.09443680 -.00002745  00000+0 -15447-3 0  9993
2 51983  53.2190 330.1294 0001447  87.7816 272.3342 15.08828486163961
STARLINK-3664           
1 51984U 22025AE  25048.06594932  .00005718  00000+0  37692-3 0  9995
2 51984  53.2194 330.3392 0002175 128.2532 231.8656 15.08856110163943
STARLINK-3651           
1 51985U 22025AF  25048.08803306 -.00000206  00000+0  51588-5 0  9996
2 51985  53.2197 330.1606 0001599  82.6516 277.4658 15.08837949163933
STARLINK-3645           
1 51986U 22025AG  25048.10177389  .00003608  00000+0  24462-3 0  9992
2 51986  53.2174 329.9401 0001480  79.9447 280.1712 15.08843525163949
STARLINK-3644           
1 51987U 22025AH  25048.06501118 -.00001785  00000+0 -94118-4 0  9991
2 51987  53.2206 330.2580 0001595 109.7074 250.4090 15.08820080163933
STARLINK-3640           
1 51988U 22025AJ  25047.51667447  .00000000  00000+0  18073-4 0  9992
2 51988  53.2196 332.7141 0001398 105.6613 254.4534 15.08839644163873
STARLINK-3642           
1 51989U 22025AK  25048.06130757 -.00000076  00000+0  13317-4 0  9993
2 51989  53.2193 330.2735 0001462 100.8819 259.2337 15.08843164163944
STARLINK-3657           
1 51990U 22025AL  25048.09628970 -.00004873  00000+0 -28847-3 0  9990
2 51990  53.2168 310.1200 0001957 137.5028 222.6115 15.08814624164229
STARLINK-3652           
1 51991U 22025AM  25048.05394949  .00000036  00000+0  20335-4 0  9993
2 51991  53.2190 330.3070 0001396  92.4971 267.6181 15.08840700163930
STARLINK-3643           
1 51992U 22025AN  25048.01899542 -.00000575  00000+0 -18056-4 0  9996
2 51992  53.2187 310.4666 0001337  93.6540 266.4605 15.08835215164234
STARLINK-3648           
1 51993U 22025AP  25048.04290701  .00001963  00000+0  14135-3 0  9995
2 51993  53.2177 330.3621 0001486  70.5679 289.5473 15.08852933163951
STARLINK-3647           
1 51994U 22025AQ  25047.94907159  .00001146  00000+0  90119-4 0  9996
2 51994  53.2182 310.7791 0001490  86.6925 273.4237 15.08838205162680
STARLINK-3636           
1 51995U 22025AR  25048.02635780  .00000497  00000+0  49354-4 0  9998
2 51995  53.2198 310.4351 0001577 105.6980 254.4186 15.08832143164203
STARLINK-3538           
1 51996U 22025AS  25048.14410674 -.00000298  00000+0 -63178-6 0  9998
2 51996  53.2179 309.9017 0001222  92.3404 267.7728 15.08844808164238
STARLINK-3589           
1 51997U 22025AT  25048.02267863 -.00000578  00000+0 -18204-4 0  9995
2 51997  53.2195 310.4518 0001424  98.6615 261.4539 15.08834829164207
STARLINK-3618           
1 51998U 22025AU  25048.04843413 -.00001506  00000+0 -76558-4 0  9997
2 51998  53.2183 310.3297 0001461  94.5410 265.5749 15.08844763164214
STARLINK-3667           
1 51999U 22025AV  25048.14043224  .00002644  00000+0  18417-3 0  9992
2 51999  53.2195 309.9091 0001659  94.5700 265.5482 15.08841060164227
STARLINK-3653           
1 52000U 22025AW  25048.09994516  .00000887  00000+0  73859-4 0  9998
2 52000  53.2188 310.0163 0001530  91.7066 268.4102 15.08833567164244
STARLINK-3659           
1 52001U 22025AX  25047.91323244 -.00000030  00000+0  16219-4 0  9991
2 52001  53.2177 310.9494 0001824  84.4785 275.6415 15.08845524162681
STARLINK-3668           
1 52002U 22025AY  25047.91227749 -.00000460  00000+0 -10774-4 0  9993
2 52002  53.2192 310.9794 0001619  93.5628 266.5549 15.08847345162681
STARLINK-3654           
1 52003U 22025AZ  25048.08577734  .14713020  12527-4  29766-3 0  9993
2 52003  53.1922 276.7798 0008640 269.8234 215.3988 16.46427413164681
STARLINK-3537           
1 52088U 22029A   25048.02105202  .00000896  00000+0  49756-4 0  9996
2 52088  53.2101 266.7713 0001217  85.8397 274.2741 15.24348541164027
STARLINK-3722           
1 52089U 22029B   25048.17447473  .00001200  00000+0  93491-4 0  9997
2 52089  53.2179  19.7599 0001364  91.2071 268.9077 15.08833134162450
STARLINK-3712           
1 52090U 22029C   25047.63350927 -.00001074  00000+0 -49402-4 0  9990
2 52090  53.2177  22.1948 0001278  85.0672 275.0466 15.08846742162379
